CUTE-1 (CO-55)          
1 27844U 03031E   23176.26661267  .00000512  00000+0  24768-3 0  9994
2 27844  98.6770 183.4045 0011082 101.0915 259.1510 14.22797583 36918
CUBESAT XI-IV (CO-57)   
1 27848U 03031J   23176.56188276  .00000403  00000+0  20070-3 0  9996
2 27848  98.6806 184.1080 0010884 113.8009 246.4311 14.22306234 36741
CUBESAT XI-V            
1 28895U 05043F   23175.58102588  .00002001  00000+0  37586-3 0  9993
2 28895  98.1550 307.5842 0017193  52.3634 307.9126 14.65700757942123
CUTE-1.7+APD II (CO-65) 
1 32785U 08021C   23176.17615154  .00005408  00000+0  53313-3 0  9999
2 32785  97.7059 141.9594 0013891  79.2377 281.0405 14.92357172822085
AAUSAT-II               
1 32788U 08021F   23176.93264199  .00011495  00000+0  83284-3 0  9998
2 32788  97.5614 156.1566 0006456 344.1837  15.9186 15.04104128824520
DELFI-C3 (DO-64)        
1 32789U 08021G   23176.62911594  .00069320  00000+0  18496-2 0  9995
2 32789  97.3013 198.0623 0008646 104.8109 255.4095 15.37841661828785
SEEDS II (CO-66)        
1 32791U 08021J   23176.49513013  .00006626  00000+0  58219-3 0  9995
2 32791  97.6562 147.5567 0012864  31.8289 328.3707 14.96828656822980
SWISSCUBE               
1 35932U 09051B   23176.63323583  .00001325  00000+0  30050-3 0  9990
2 35932  98.5204  47.1900 0007280 351.2526   8.8543 14.57759233730480
BEESAT-1                
1 35933U 09051C   23176.11514182  .00001220  00000+0  27824-3 0  9990
2 35933  98.5133  47.9792 0005876   8.0297 352.0994 14.57662297730522
ITUPSAT1                
1 35935U 09051E   23176.64133913  .00001046  00000+0  24490-3 0  9991
2 35935  98.5232  48.4594 0008200   7.4218 352.7099 14.56710644730229
TISAT 1                 
1 36799U 10035E   23177.10644638  .00006229  00000+0  55445-3 0  9999
2 36799  98.1350  47.0877 0009871 309.2630  50.7714 14.96405551703760
M-CUBED & EXP-1 PRIME   
1 37855U 11061F   23177.11760869  .00039948  00000+0  12219-2 0  9994
2 37855 101.7061 143.8384 0117053  13.4663 346.9639 15.27204591638392
AEROCUBE 4.5A           
1 38767U 12048K   23176.81054771  .00011358  00000+0  76589-3 0  9993
2 38767  64.6652  13.9969 0122917 152.6898 208.0754 15.00981523206682
AEROCUBE 4.5B           
1 38768U 12048L   23176.10527819  .00020110  00000+0  11402-2 0  9992
2 38768  64.6651 320.1812 0101904 146.5006 214.2616 15.08661163207161
STRAND-1                
1 39090U 13009E   23176.08797628  .00000431  00000+0  16425-3 0  9998
2 39090  98.3885   9.2320 0007851 237.0216 123.0216 14.35613252540873
BRITE-AUSTRIA           
1 39091U 13009F   23176.08725665  .00000276  00000+0  11092-3 0  9993
2 39091  98.3914   8.4593 0009266 245.2639 114.7583 14.35496152540896
SOMP                    
1 39134U 13015E   23176.60734542  .00146581  00000+0  14402-2 0  9997
2 39134  64.8462 256.0906 0018584 274.7293  85.1734 15.65118384564689
BEESAT-3                
1 39135U 13015F   23176.45795222  .00052980  00000+0  11453-2 0  9995
2 39135  64.8583 309.2572 0019690 247.2984 112.6074 15.43983240563640
BEESAT-2                
1 39136U 13015G   23177.10412856  .00044301  00000+0  10604-2 0  9993
2 39136  64.8686 318.8062 0027888 273.3395  86.4552 15.40794929563537
NEE-01 PEGASO           
1 39151U 13018B   23177.09633480  .00003264  00000+0  40869-3 0  9999
2 39151  98.0100 287.2815 0017317 121.1350 239.1564 14.82851196549018
ESTCUBE 1               
1 39161U 13021C   23177.11084547  .00002347  00000+0  36126-3 0  9993
2 39161  97.8709 249.1222 0007931 306.0636  53.9838 14.74365356544483
POPACS 1                
1 39268U 13055D   23177.08273460  .00024424  00000+0  53941-3 0  9992
2 39268  80.9912 192.8985 0506080 139.0517 224.9878 14.67119066509214
POPACS 2                
1 39269U 13055E   23176.25456410  .00012652  00000+0  32539-3 0  9999
2 39269  81.0079 263.6353 0603847 323.2104  32.9024 14.43466381504961
POPACS 3                
1 39270U 13055F   23176.08495357  .00011026  00000+0  31655-3 0  9997
2 39270  81.0123 304.3824 0661619  78.0114 289.4397 14.28867981502397
ZACUBE-1 (TSHEPISOSAT)  
1 39417U 13066B   23177.12593535  .00003824  00000+0  44276-3 0  9995
2 39417  97.6855 138.4792 0052987 257.7522 101.7757 14.85071002518528
WNISAT-1                
1 39423U 13066H   23177.09608568  .00001314  00000+0  26273-3 0  9990
2 39423  97.7026  35.0664 0173840  49.4759 312.1435 14.54215484508739
TRITON-1                
1 39427U 13066M   23177.08142063  .00002657  00000+0  40227-3 0  9992
2 39427  97.8349 102.6100 0108787 148.4443 212.3350 14.71046246513859
DELFI-N3XT              
1 39428U 13066N   23176.73620205  .00004493  00000+0  64654-3 0  9993
2 39428  97.8328 101.2686 0110980 161.0606 199.4780 14.72682646513573
GOMX-1                  
1 39430U 13066Q   23176.94856147  .00002413  00000+0  42487-3 0  9995
2 39430  97.7789  67.5785 0144129 306.1127  52.6803 14.61894364510812
CUBEBUG-2 (LO-74)       
1 39440U 13066AA  23176.82606538  .00004612  00000+0  59469-3 0  9991
2 39440  97.7723 125.2949 0075291   0.5734 359.5551 14.79511007516631
NEE-02 KRYSAOR          
1 39441U 13066AB  23177.08462534  .00003484  00000+0  47109-3 0  9991
2 39441  97.7832 122.3581 0078594  16.4039 343.9688 14.77509788516321
FUNCUBE-1 (AO-73)       
1 39444U 13066AE  23176.47281407  .00004317  00000+0  47926-3 0  9997
2 39444  97.6718 140.4021 0051294 244.6826 114.9072 14.86780619517466
UWE-3                   
1 39446U 13066AG  23177.13945501  .00004397  00000+0  53935-3 0  9990
2 39446  97.7348 131.7557 0063995 310.8858  48.6821 14.82162282516344
BRITE-CA1 (TORONTO)     
1 40020U 14033L   23176.94966835  .00001734  00000+0  29427-3 0  9997
2 40020  97.8271 323.1860 0086060 151.4620 209.1337 14.68013191482546
DUCHIFAT-1              
1 40021U 14033M   23176.43683466  .00008784  00000+0  74614-3 0  9998
2 40021  98.0568 140.6564 0009614 239.4392 120.5881 14.98100609490425
NANOSATC-BR1            
1 40024U 14033Q   23176.14601080  .00008191  00000+0  73390-3 0  9993
2 40024  98.0277 131.4693 0009048 252.2423 107.7810 14.96043168490125
QB50P1                  
1 40025U 14033R   23176.43925690  .00005149  00000+0  48790-3 0  9998
2 40025  97.9966 123.3457 0009578 266.9139  93.0984 14.94017046489885
QB50P2                  
1 40032U 14033Y   23177.10323889  .00005161  00000+0  49945-3 0  9990
2 40032  97.9670 117.7724 0009049 261.7336  98.2857 14.93176673489825
PERSEUS-M2              
1 40037U 14033AD  23176.74411528  .00002386  00000+0  26283-3 0  9998
2 40037  97.9078 102.3941 0012390 295.5953  64.3982 14.88458722489124
PERSEUS-M1              
1 40039U 14033AF  23177.03625606  .00001923  00000+0  21471-3 0  9997
2 40039  97.8934  99.6671 0012196 293.9847  66.0092 14.88118329489040
POLYITAN-1              
1 40042U 14033AJ  23177.10630992  .00006368  00000+0  58877-3 0  9991
2 40042  98.0080 125.9333 0011290 254.8311 105.1660 14.94881958489883
TIGRISAT                
1 40043U 14033AK  23176.45249301  .00002241  00000+0  31948-3 0  9995
2 40043  97.6661 351.0649 0058283  28.2369 332.1981 14.76556509484935
AEROCUBE 6A             
1 40045U 14033AM  23176.48543185  .00004192  00000+0  56213-3 0  9996
2 40045  97.6582   0.8352 0054788  12.9532 347.3073 14.78837265485098
AEROCUBE 6B             
1 40046U 14033AN  23176.98807190  .00004491  00000+0  59155-3 0  9991
2 40046  97.6526 359.7817 0053278   8.3902 351.8188 14.79607115485336
UKUBE-1                 
1 40074U 14037F   23176.99097166  .00004816  00000+0  52601-3 0  9991
2 40074  98.3441  81.9405 0004715 141.0206 219.1350 14.88396274485565
BRITE-PL2 (HEWELIUSZ)   
1 40119U 14049B   23177.06053896  .00002381  00000+0  27366-3 0  9990
2 40119  97.8817 274.1047 0018083  98.3491 261.9776 14.86638084479574
FIREBIRD 4              
1 40378U 15003C   23176.45838002  .00266425  00000+0  14674-2 0  9998
2 40378  99.0751 138.3962 0039541 167.8816 192.3406 15.77828145465969
GRIFEX                  
1 40379U 15003D   23177.06422247  .00037009  00000+0  78486-3 0  9993
2 40379  99.0773 115.9654 0078232 239.3043 120.0474 15.41694659464751
CP10 (EXOCUBE)          
1 40380U 15003E   23176.35265402  .00030035  00000+0  82001-3 0  9994
2 40380  99.0829 104.7551 0094074 277.2567  81.7984 15.32949732463989
EXACTVIEW 9             
1 40936U 15052G   23177.01361754  .00003030  00000+0  31749-3 0  9994
2 40936   6.0039  24.9838 0009316  49.4752 310.6187 14.78594721418609
AEROCUBE 5C             
1 40965U 15058B   23176.96920754  .00004110  00000+0  45693-3 0  9999
2 40965  64.7742  14.9028 0162332  68.8181 293.0183 14.79399898204132
AEROCUBE 7              
1 40966U 15058C   23176.02651178  .00004866  00000+0  52829-3 0  9995
2 40966  64.7729  13.9281 0159764  68.8889 292.9212 14.80343230204040
ATHENOXAT 1             
1 41168U 15077C   23177.10838245  .00226294  00000+0  22573-2 0  9996
2 41168  14.9851 151.0817 0006476 205.3684 154.6326 15.63518382417713
GALASSIA                
1 41170U 15077E   23177.09338051  .00053432  00000+0  12378-2 0  9991
2 41170  14.9862 164.9853 0007564 178.8662 181.1680 15.40498772417599
VELOX-II                
1 41171U 15077F   23176.88978536  .00022770  00000+0  78017-3 0  9990
2 41171  14.9906 269.3762 0005627 315.5481  44.4390 15.27807849416597
HORYU-4                 
1 41340U 16012D   23177.12626130  .00008863  00000+0  55485-3 0  9997
2 41340  31.0030 125.8251 0011550 329.5504  30.4463 15.08037567404072
E-ST@R-II               
1 41459U 16025D   23177.10884484  .00037379  00000+0  10547-2 0  9991
2 41459  98.1858  19.3156 0106232  68.6422 292.6114 15.30739645394263
AAUSAT 4                
1 41460U 16025E   23177.12438155  .00158327  00000+0  18350-2 0  9992
2 41460  98.1572  32.4284 0052213  21.8678 338.4788 15.59602673395166
BEESAT-4                
1 41619U 16040W   23177.09319827  .00115984  00000+0  13106-2 0  9991
2 41619  97.1553 226.7546 0006721 187.8524 172.2631 15.62062579378267
